ONEWEB-0319             
1 49105U 21075AG  25305.59270674  .00000137  00000+0  31990-3 0  9994
2 49105  87.9123  51.1324 0001438  91.0319 269.0978 13.17650202203638
ONEWEB-0323             
1 49106U 21075AH  25305.54900804  .00000467  00000+0  12617-2 0  9995
2 49106  87.8970  35.8653 0001370  81.5556 278.5727 13.12442810204697
ONEWEB-0329             
1 49107U 21075AJ  25305.29739031 -.00000041  00000+0 -13760-3 0  9991
2 49107  87.9122  51.1929 0001859  93.1343 267.0001 13.17653129203576
ONEWEB-0330             
1 49108U 21075AK  25305.52604907  .00000131  00000+0  30492-3 0  9990
2 49108  87.9124  51.1531 0001881  93.7364 266.3983 13.17648613203643
ONEWEB-0292             
1 49186U 21083A   25305.62308265  .00000218  00000+0  56126-3 0  9992
2 49186  87.9023   5.4921 0002180 105.7419 254.3951 13.13468622201051
ONEWEB-0303             
1 49187U 21083B   25305.59865143  .00000030  00000+0  44273-4 0  9995
2 49187  87.9230  20.6564 0001660  98.0299 262.1021 13.18686660199988
ONEWEB-0306             
1 49188U 21083C   25305.51287820  .00000046  00000+0  84393-4 0  9992
2 49188  87.9227  20.6585 0002031 102.7590 257.3769 13.18687419200013
ONEWEB-0307             
1 49189U 21083D   25305.61716050  .00000381  00000+0  10074-2 0  9991
2 49189  87.9014   5.4862 0001829 100.1407 259.9929 13.13470736201058
ONEWEB-0320             
1 49190U 21083E   25305.44406649  .00000002  00000+0 -27364-4 0  9997
2 49190  87.9232  20.7012 0001933 101.7275 258.4074 13.18607094199960
ONEWEB-0321             
1 49191U 21083F   25305.47602761  .00000030  00000+0  40866-4 0  9996
2 49191  87.9196 319.8473 0002173  96.8471 263.2910 13.20771901206775
ONEWEB-0322             
1 49192U 21083G   25305.61291147 -.00000079  00000+0 -25240-3 0  9998
2 49192  87.9017   5.4875 0002260 109.3048 250.8326 13.13469709201049
ONEWEB-0324             
1 49193U 21083H   25305.20277471  .00000048  00000+0  88926-4 0  9993
2 49193  87.9222  20.7272 0001938  96.3183 263.8170 13.18686256199955
ONEWEB-0325             
1 49194U 21083J   25305.50956822 -.00000065  00000+0 -19637-3 0  9994
2 49194  87.9230  20.6848 0001865 102.2811 257.8530 13.18686404200004
ONEWEB-0326             
1 49195U 21083K   25305.44867816  .00000086  00000+0  18463-3 0  9999
2 49195  87.9226  20.6843 0001541  99.5062 260.6244 13.18686890199989
ONEWEB-0327             
1 49196U 21083L   25305.44841141  .00000047  00000+0  87362-4 0  9995
2 49196  87.9218  20.7070 0001479 104.6251 255.5045 13.18686979200008
ONEWEB-0328             
1 49197U 21083M   25305.60276738  .00000045  00000+0  87512-4 0  9993
2 49197  87.9033   5.4318 0001925  94.9938 265.1411 13.13469440201022
ONEWEB-0331             
1 49198U 21083N   25305.44195284  .00000050  00000+0  93108-4 0  9996
2 49198  87.9226  20.6782 0001607  92.7318 267.3998 13.18685745199995
