[{"OBJECT_NAME":"ONEWEB-0319","OBJECT_ID":"2021-075AG","EPOCH":"2025-11-01T14:13:29.862336","MEAN_MOTION":13.17650202,"ECCENTRICITY":0.00014388,"INCLINATION":87.9123,"RA_OF_ASC_NODE":51.1324,"ARG_OF_PERICENTER":91.0319,"MEAN_ANOMALY":269.0978,"EPHEMERIS_TYPE":0,"CLASSIFICATION_TYPE":"U","NORAD_CAT_ID":49105,"ELEMENT_SET_NO":999,"REV_AT_EPOCH":20363,"BSTAR":0.00031990247,"MEAN_MOTION_DOT":1.37e-6,"MEAN_MOTION_DDOT":0},{"OBJECT_NAME":"ONEWEB-0323","OBJECT_ID":"2021-075AH","EPOCH":"2025-11-01T13:10:34.294656","MEAN_MOTION":13.1244281,"ECCENTRICITY":0.00013706,"INCLINATION":87.897,"RA_OF_ASC_NODE":35.8653,"ARG_OF_PERICENTER":81.5556,"MEAN_ANOMALY":278.5727,"EPHEMERIS_TYPE":0,"CLASSIFICATION_TYPE":"U","NORAD_CAT_ID":49106,"ELEMENT_SET_NO":999,"REV_AT_EPOCH":20469,"BSTAR":0.0012616955,"MEAN_MOTION_DOT":4.67e-6,"MEAN_MOTION_DDOT":0},{"OBJECT_NAME":"ONEWEB-0329","OBJECT_ID":"2021-075AJ","EPOCH":"2025-11-01T07:08:14.522784","MEAN_MOTION":13.17653129,"ECCENTRICITY":0.00018594,"INCLINATION":87.9122,"RA_OF_ASC_NODE":51.1929,"ARG_OF_PERICENTER":93.1343,"MEAN_ANOMALY":267.0001,"EPHEMERIS_TYPE":0,"CLASSIFICATION_TYPE":"U","NORAD_CAT_ID":49107,"ELEMENT_SET_NO":999,"REV_AT_EPOCH":20357,"BSTAR":-0.00013759799,"MEAN_MOTION_DOT":-4.1e-7,"MEAN_MOTION_DDOT":0},{"OBJECT_NAME":"ONEWEB-0330","OBJECT_ID":"2021-075AK","EPOCH":"2025-11-01T12:37:30.639648","MEAN_MOTION":13.17648613,"ECCENTRICITY":0.00018819,"INCLINATION":87.9124,"RA_OF_ASC_NODE":51.1531,"ARG_OF_PERICENTER":93.7364,"MEAN_ANOMALY":266.3983,"EPHEMERIS_TYPE":0,"CLASSIFICATION_TYPE":"U","NORAD_CAT_ID":49108,"ELEMENT_SET_NO":999,"REV_AT_EPOCH":20364,"BSTAR":0.00030492018,"MEAN_MOTION_DOT":1.31e-6,"MEAN_MOTION_DDOT":0},{"OBJECT_NAME":"ONEWEB-0292","OBJECT_ID":"2021-083A","EPOCH":"2025-11-01T14:57:14.340960","MEAN_MOTION":13.13468622,"ECCENTRICITY":0.00021804,"INCLINATION":87.9023,"RA_OF_ASC_NODE":5.4921,"ARG_OF_PERICENTER":105.7419,"MEAN_ANOMALY":254.3951,"EPHEMERIS_TYPE":0,"CLASSIFICATION_TYPE":"U","NORAD_CAT_ID":49186,"ELEMENT_SET_NO":999,"REV_AT_EPOCH":20105,"BSTAR":0.00056126436,"MEAN_MOTION_DOT":2.18e-6,"MEAN_MOTION_DDOT":0},{"OBJECT_NAME":"ONEWEB-0303","OBJECT_ID":"2021-083B","EPOCH":"2025-11-01T14:22:03.483552","MEAN_MOTION":13.1868666,"ECCENTRICITY":0.00016604,"INCLINATION":87.923,"RA_OF_ASC_NODE":20.6564,"ARG_OF_PERICENTER":98.0299,"MEAN_ANOMALY":262.1021,"EPHEMERIS_TYPE":0,"CLASSIFICATION_TYPE":"U","NORAD_CAT_ID":49187,"ELEMENT_SET_NO":999,"REV_AT_EPOCH":19998,"BSTAR":4.4272976e-5,"MEAN_MOTION_DOT":3.0e-7,"MEAN_MOTION_DDOT":0},{"OBJECT_NAME":"ONEWEB-0306","OBJECT_ID":"2021-083C","EPOCH":"2025-11-01T12:18:32.676480","MEAN_MOTION":13.18687419,"ECCENTRICITY":0.00020319,"INCLINATION":87.9227,"RA_OF_ASC_NODE":20.6585,"ARG_OF_PERICENTER":102.759,"MEAN_ANOMALY":257.3769,"EPHEMERIS_TYPE":0,"CLASSIFICATION_TYPE":"U","NORAD_CAT_ID":49188,"ELEMENT_SET_NO":999,"REV_AT_EPOCH":20001,"BSTAR":8.4393495e-5,"MEAN_MOTION_DOT":4.6e-7,"MEAN_MOTION_DDOT":0},{"OBJECT_NAME":"ONEWEB-0307","OBJECT_ID":"2021-083D","EPOCH":"2025-11-01T14:48:42.667200","MEAN_MOTION":13.13470736,"ECCENTRICITY":0.00018297,"INCLINATION":87.9014,"RA_OF_ASC_NODE":5.4862,"ARG_OF_PERICENTER":100.1407,"MEAN_ANOMALY":259.9929,"EPHEMERIS_TYPE":0,"CLASSIFICATION_TYPE":"U","NORAD_CAT_ID":49189,"ELEMENT_SET_NO":999,"REV_AT_EPOCH":20105,"BSTAR":0.001007384,"MEAN_MOTION_DOT":3.81e-6,"MEAN_MOTION_DDOT":0},{"OBJECT_NAME":"ONEWEB-0320","OBJECT_ID":"2021-083E","EPOCH":"2025-11-01T10:39:27.344736","MEAN_MOTION":13.18607094,"ECCENTRICITY":0.00019332,"INCLINATION":87.9232,"RA_OF_ASC_NODE":20.7012,"ARG_OF_PERICENTER":101.7275,"MEAN_ANOMALY":258.4074,"EPHEMERIS_TYPE":0,"CLASSIFICATION_TYPE":"U","NORAD_CAT_ID":49190,"ELEMENT_SET_NO":999,"REV_AT_EPOCH":19996,"BSTAR":-2.7364023e-5,"MEAN_MOTION_DOT":2.0e-8,"MEAN_MOTION_DDOT":0},{"OBJECT_NAME":"ONEWEB-0321","OBJECT_ID":"2021-083F","EPOCH":"2025-11-01T11:25:28.785504","MEAN_MOTION":13.20771901,"ECCENTRICITY":0.00021739,"INCLINATION":87.9196,"RA_OF_ASC_NODE":319.8473,"ARG_OF_PERICENTER":96.8471,"MEAN_ANOMALY":263.291,"EPHEMERIS_TYPE":0,"CLASSIFICATION_TYPE":"U","NORAD_CAT_ID":49191,"ELEMENT_SET_NO":999,"REV_AT_EPOCH":20677,"BSTAR":4.0865752e-5,"MEAN_MOTION_DOT":3.0e-7,"MEAN_MOTION_DDOT":0},{"OBJECT_NAME":"ONEWEB-0322","OBJECT_ID":"2021-083G","EPOCH":"2025-11-01T14:42:35.551008","MEAN_MOTION":13.13469709,"ECCENTRICITY":0.00022609,"INCLINATION":87.9017,"RA_OF_ASC_NODE":5.4875,"ARG_OF_PERICENTER":109.3048,"MEAN_ANOMALY":250.8326,"EPHEMERIS_TYPE":0,"CLASSIFICATION_TYPE":"U","NORAD_CAT_ID":49192,"ELEMENT_SET_NO":999,"REV_AT_EPOCH":20104,"BSTAR":-0.00025240392,"MEAN_MOTION_DOT":-7.9e-7,"MEAN_MOTION_DDOT":0},{"OBJECT_NAME":"ONEWEB-0324","OBJECT_ID":"2021-083H","EPOCH":"2025-11-01T04:51:59.734944","MEAN_MOTION":13.18686256,"ECCENTRICITY":0.00019381,"INCLINATION":87.9222,"RA_OF_ASC_NODE":20.7272,"ARG_OF_PERICENTER":96.3183,"MEAN_ANOMALY":263.817,"EPHEMERIS_TYPE":0,"CLASSIFICATION_TYPE":"U","NORAD_CAT_ID":49193,"ELEMENT_SET_NO":999,"REV_AT_EPOCH":19995,"BSTAR":8.8925809e-5,"MEAN_MOTION_DOT":4.8e-7,"MEAN_MOTION_DDOT":0},{"OBJECT_NAME":"ONEWEB-0325","OBJECT_ID":"2021-083J","EPOCH":"2025-11-01T12:13:46.694208","MEAN_MOTION":13.18686404,"ECCENTRICITY":0.00018651,"INCLINATION":87.923,"RA_OF_ASC_NODE":20.6848,"ARG_OF_PERICENTER":102.2811,"MEAN_ANOMALY":257.853,"EPHEMERIS_TYPE":0,"CLASSIFICATION_TYPE":"U","NORAD_CAT_ID":49194,"ELEMENT_SET_NO":999,"REV_AT_EPOCH":20000,"BSTAR":-0.00019637103,"MEAN_MOTION_DOT":-6.5e-7,"MEAN_MOTION_DDOT":0},{"OBJECT_NAME":"ONEWEB-0326","OBJECT_ID":"2021-083K","EPOCH":"2025-11-01T10:46:05.793024","MEAN_MOTION":13.1868689,"ECCENTRICITY":0.0001541,"INCLINATION":87.9226,"RA_OF_ASC_NODE":20.6843,"ARG_OF_PERICENTER":99.5062,"MEAN_ANOMALY":260.6244,"EPHEMERIS_TYPE":0,"CLASSIFICATION_TYPE":"U","NORAD_CAT_ID":49195,"ELEMENT_SET_NO":999,"REV_AT_EPOCH":19998,"BSTAR":0.00018462709,"MEAN_MOTION_DOT":8.6e-7,"MEAN_MOTION_DDOT":0},{"OBJECT_NAME":"ONEWEB-0327","OBJECT_ID":"2021-083L","EPOCH":"2025-11-01T10:45:42.745824","MEAN_MOTION":13.18686979,"ECCENTRICITY":0.00014791,"INCLINATION":87.9218,"RA_OF_ASC_NODE":20.707,"ARG_OF_PERICENTER":104.6251,"MEAN_ANOMALY":255.5045,"EPHEMERIS_TYPE":0,"CLASSIFICATION_TYPE":"U","NORAD_CAT_ID":49196,"ELEMENT_SET_NO":999,"REV_AT_EPOCH":20000,"BSTAR":8.7361772e-5,"MEAN_MOTION_DOT":4.7e-7,"MEAN_MOTION_DDOT":0},{"OBJECT_NAME":"ONEWEB-0328","OBJECT_ID":"2021-083M","EPOCH":"2025-11-01T14:27:59.101632","MEAN_MOTION":13.1346944,"ECCENTRICITY":0.00019254,"INCLINATION":87.9033,"RA_OF_ASC_NODE":5.4318,"ARG_OF_PERICENTER":94.9938,"MEAN_ANOMALY":265.1411,"EPHEMERIS_TYPE":0,"CLASSIFICATION_TYPE":"U","NORAD_CAT_ID":49197,"ELEMENT_SET_NO":999,"REV_AT_EPOCH":20102,"BSTAR":8.7511744e-5,"MEAN_MOTION_DOT":4.5e-7,"MEAN_MOTION_DDOT":0},{"OBJECT_NAME":"ONEWEB-0331","OBJECT_ID":"2021-083N","EPOCH":"2025-11-01T10:36:24.725376","MEAN_MOTION":13.18685745,"ECCENTRICITY":0.00016078,"INCLINATION":87.9226,"RA_OF_ASC_NODE":20.6782,"ARG_OF_PERICENTER":92.7318,"MEAN_ANOMALY":267.3998,"EPHEMERIS_TYPE":0,"CLASSIFICATION_TYPE":"U","NORAD_CAT_ID":49198,"ELEMENT_SET_NO":999,"REV_AT_EPOCH":19999,"BSTAR":9.3107916e-5,"MEAN_MOTION_DOT":5.0e-7,"MEAN_MOTION_DDOT":0}]
